{
"type": "FeatureCollection",
"name": "boundaries_vienna",
"crs": { "type": "name", "properties": { "name": "urn:ogc:def:crs:OGC:1.3:CRS84" } },
"features": [
{ "type": "Feature", "properties": { "NUTS_ID": "AT130", "LEVL_CODE": 3, "CNTR_CODE": "AT", "NAME_LATN": "Wien", "NUTS_NAME": "Wien", "MOUNT_TYPE": null, "URBN_TYPE": null, "COAST_TYPE": null }, "geometry": { "type": "Polygon", "coordinates": [ [ [ 16.431655773000045, 48.318325784000081 ], [ 16.437490469000068, 48.315714749000051 ], [ 16.439542828000071, 48.303386009000064 ], [ 16.441515742000036, 48.291534508000041 ], [ 16.476804075000075, 48.274181749000036 ], [ 16.480672149000043, 48.273678023000059 ], [ 16.483237103000022, 48.279087022000056 ], [ 16.482599841000024, 48.28701568200006 ], [ 16.482063280000034, 48.293691439000042 ], [ 16.50206464200005, 48.290358891000039 ], [ 16.514538163000054, 48.285484068000073 ], [ 16.511887307000052, 48.280962895000073 ], [ 16.508187720000024, 48.27465305700008 ], [ 16.513979236000068, 48.268139630000064 ], [ 16.530597053000065, 48.262549747000037 ], [ 16.537112107000041, 48.262762891000079 ], [ 16.546823979000067, 48.263080620000039 ], [ 16.545051323000052, 48.256693798000072 ], [ 16.541822663000062, 48.245061044000067 ], [ 16.548421864000034, 48.240985941000076 ], [ 16.551966716000038, 48.238796943000068 ], [ 16.548410511000043, 48.22593577300006 ], [ 16.545421235000049, 48.215124923000076 ], [ 16.536950924000053, 48.201673790000029 ], [ 16.539337425000042, 48.193262984000057 ], [ 16.536807933000034, 48.177665966000063 ], [ 16.540368540000031, 48.173251089000075 ], [ 16.543856907000077, 48.176469163000036 ], [ 16.545278432000032, 48.176330268000072 ], [ 16.548835170000075, 48.175982744000066 ], [ 16.548453013000028, 48.174200659000064 ], [ 16.547482831000025, 48.169676478000042 ], [ 16.551955215000078, 48.163346438000076 ], [ 16.566827447000037, 48.161874514000033 ], [ 16.57200524700005, 48.161362060000044 ], [ 16.578035999000065, 48.143311881000045 ], [ 16.575962323000056, 48.136327914000049 ], [ 16.545800108000037, 48.142821015000038 ], [ 16.536134686000025, 48.147845024000048 ], [ 16.515863533000072, 48.158381807000069 ], [ 16.49314098900004, 48.158058718000063 ], [ 16.478477746000067, 48.155990941000027 ], [ 16.459753058000047, 48.143641461000072 ], [ 16.453617088000044, 48.139594609000028 ], [ 16.442728724000062, 48.138402199000041 ], [ 16.434381476000055, 48.137488073000043 ], [ 16.432532240000057, 48.131433615000049 ], [ 16.433984316000021, 48.127463178000028 ], [ 16.436608001000025, 48.12028919100004 ], [ 16.431655773000045, 48.121159502000069 ], [ 16.424469508000072, 48.122422426000071 ], [ 16.411856241000066, 48.11943915300003 ], [ 16.38727429000005, 48.125667659000044 ], [ 16.364930331000039, 48.128670622000072 ], [ 16.336705710000047, 48.135049257000048 ], [ 16.32615364000003, 48.137433976000068 ], [ 16.317903864000073, 48.127031586000044 ], [ 16.312129007000067, 48.11974989600003 ], [ 16.302029814000036, 48.124658860000068 ], [ 16.298942785000065, 48.12615938700003 ], [ 16.296165529000064, 48.128884174000063 ], [ 16.269133235000027, 48.133330238000042 ], [ 16.248336485000038, 48.129980514000067 ], [ 16.229096064000032, 48.126881467000032 ], [ 16.220041182000045, 48.124301815000081 ], [ 16.216400841000052, 48.125730032000035 ], [ 16.218634788000031, 48.128163584000049 ], [ 16.224958701000048, 48.131749136000053 ], [ 16.229777566000053, 48.134481351000034 ], [ 16.219544662000033, 48.140249959000073 ], [ 16.216897052000036, 48.141742500000078 ], [ 16.213184608000063, 48.146930611000073 ], [ 16.213343838000071, 48.149986148000039 ], [ 16.213537709000036, 48.153706413000066 ], [ 16.208533309000074, 48.154365263000045 ], [ 16.198824989000059, 48.155643403000056 ], [ 16.195538719000069, 48.16363947800005 ], [ 16.195118103000027, 48.16466291100005 ], [ 16.184401654000055, 48.171587981000073 ], [ 16.202834782000025, 48.189461472000062 ], [ 16.207909357000062, 48.202191103000075 ], [ 16.204754799000057, 48.204702216000044 ], [ 16.203799190000041, 48.205462906000037 ], [ 16.20490542400006, 48.206831040000054 ], [ 16.207275530000061, 48.209762266000041 ], [ 16.202558502000045, 48.212656630000026 ], [ 16.198130555000034, 48.215373615000033 ], [ 16.196770801000071, 48.220020471000055 ], [ 16.196287562000066, 48.221671905000051 ], [ 16.195412547000046, 48.221748613000045 ], [ 16.184447103000025, 48.222709893000058 ], [ 16.183983357000045, 48.223313030000043 ], [ 16.194399179000072, 48.229530489000069 ], [ 16.197032383000078, 48.231102313000065 ], [ 16.196892482000067, 48.235073675000081 ], [ 16.196524440000076, 48.245521240000073 ], [ 16.208525118000068, 48.262583555000049 ], [ 16.238221970000041, 48.248022570000046 ], [ 16.238364314000023, 48.247308040000064 ], [ 16.239743901000054, 48.24038285000006 ], [ 16.255334781000045, 48.239965319000078 ], [ 16.267612846000077, 48.250522614000033 ], [ 16.267499705000034, 48.25098997200007 ], [ 16.266476801000067, 48.255215345000067 ], [ 16.278832649000037, 48.259225034000053 ], [ 16.289110447000041, 48.262560359000076 ], [ 16.288148406000062, 48.265994311000043 ], [ 16.287726398000075, 48.267500643000062 ], [ 16.290631562000044, 48.270986358000073 ], [ 16.340422704000048, 48.281608446000064 ], [ 16.346549400000072, 48.284264248000056 ], [ 16.347786739000071, 48.288690600000052 ], [ 16.358053383000026, 48.284448389000033 ], [ 16.358646873000055, 48.284203157000036 ], [ 16.367533558000048, 48.283974714000067 ], [ 16.376946360000034, 48.289173917000028 ], [ 16.376597783000022, 48.295402583000055 ], [ 16.37655, 48.296256410000069 ], [ 16.377490538000075, 48.297195007000028 ], [ 16.383771301000024, 48.303462804000048 ], [ 16.382466874000045, 48.307186216000048 ], [ 16.380652987000076, 48.312363853000079 ], [ 16.382575426000074, 48.316948341000057 ], [ 16.394427773000075, 48.321741153000062 ], [ 16.397689247000073, 48.319264589000056 ], [ 16.399687916000062, 48.317746921000037 ], [ 16.40986472700007, 48.320144110000058 ], [ 16.417111652000074, 48.321851153000068 ], [ 16.427065695000067, 48.320379851000041 ], [ 16.431655773000045, 48.318325784000081 ] ] ] } },
{ "type": "Feature", "properties": { "NUTS_ID": "AT13", "LEVL_CODE": 2, "CNTR_CODE": "AT", "NAME_LATN": "Wien", "NUTS_NAME": "Wien", "MOUNT_TYPE": null, "URBN_TYPE": null, "COAST_TYPE": null }, "geometry": { "type": "Polygon", "coordinates": [ [ [ 16.431655773000045, 48.318325784000081 ], [ 16.437490469000068, 48.315714749000051 ], [ 16.439542828000071, 48.303386009000064 ], [ 16.441515742000036, 48.291534508000041 ], [ 16.476804075000075, 48.274181749000036 ], [ 16.480672149000043, 48.273678023000059 ], [ 16.483237103000022, 48.279087022000056 ], [ 16.482599841000024, 48.28701568200006 ], [ 16.482063280000034, 48.293691439000042 ], [ 16.50206464200005, 48.290358891000039 ], [ 16.514538163000054, 48.285484068000073 ], [ 16.511887307000052, 48.280962895000073 ], [ 16.508187720000024, 48.27465305700008 ], [ 16.513979236000068, 48.268139630000064 ], [ 16.530597053000065, 48.262549747000037 ], [ 16.537112107000041, 48.262762891000079 ], [ 16.546823979000067, 48.263080620000039 ], [ 16.545051323000052, 48.256693798000072 ], [ 16.541822663000062, 48.245061044000067 ], [ 16.548421864000034, 48.240985941000076 ], [ 16.551966716000038, 48.238796943000068 ], [ 16.548410511000043, 48.22593577300006 ], [ 16.545421235000049, 48.215124923000076 ], [ 16.536950924000053, 48.201673790000029 ], [ 16.539337425000042, 48.193262984000057 ], [ 16.536807933000034, 48.177665966000063 ], [ 16.540368540000031, 48.173251089000075 ], [ 16.543856907000077, 48.176469163000036 ], [ 16.545278432000032, 48.176330268000072 ], [ 16.548835170000075, 48.175982744000066 ], [ 16.548453013000028, 48.174200659000064 ], [ 16.547482831000025, 48.169676478000042 ], [ 16.551955215000078, 48.163346438000076 ], [ 16.566827447000037, 48.161874514000033 ], [ 16.57200524700005, 48.161362060000044 ], [ 16.578035999000065, 48.143311881000045 ], [ 16.575962323000056, 48.136327914000049 ], [ 16.545800108000037, 48.142821015000038 ], [ 16.536134686000025, 48.147845024000048 ], [ 16.515863533000072, 48.158381807000069 ], [ 16.49314098900004, 48.158058718000063 ], [ 16.478477746000067, 48.155990941000027 ], [ 16.459753058000047, 48.143641461000072 ], [ 16.453617088000044, 48.139594609000028 ], [ 16.442728724000062, 48.138402199000041 ], [ 16.434381476000055, 48.137488073000043 ], [ 16.432532240000057, 48.131433615000049 ], [ 16.433984316000021, 48.127463178000028 ], [ 16.436608001000025, 48.12028919100004 ], [ 16.431655773000045, 48.121159502000069 ], [ 16.424469508000072, 48.122422426000071 ], [ 16.411856241000066, 48.11943915300003 ], [ 16.38727429000005, 48.125667659000044 ], [ 16.364930331000039, 48.128670622000072 ], [ 16.336705710000047, 48.135049257000048 ], [ 16.32615364000003, 48.137433976000068 ], [ 16.317903864000073, 48.127031586000044 ], [ 16.312129007000067, 48.11974989600003 ], [ 16.302029814000036, 48.124658860000068 ], [ 16.298942785000065, 48.12615938700003 ], [ 16.296165529000064, 48.128884174000063 ], [ 16.269133235000027, 48.133330238000042 ], [ 16.248336485000038, 48.129980514000067 ], [ 16.229096064000032, 48.126881467000032 ], [ 16.220041182000045, 48.124301815000081 ], [ 16.216400841000052, 48.125730032000035 ], [ 16.218634788000031, 48.128163584000049 ], [ 16.224958701000048, 48.131749136000053 ], [ 16.229777566000053, 48.134481351000034 ], [ 16.219544662000033, 48.140249959000073 ], [ 16.216897052000036, 48.141742500000078 ], [ 16.213184608000063, 48.146930611000073 ], [ 16.213343838000071, 48.149986148000039 ], [ 16.213537709000036, 48.153706413000066 ], [ 16.208533309000074, 48.154365263000045 ], [ 16.198824989000059, 48.155643403000056 ], [ 16.195538719000069, 48.16363947800005 ], [ 16.195118103000027, 48.16466291100005 ], [ 16.184401654000055, 48.171587981000073 ], [ 16.202834782000025, 48.189461472000062 ], [ 16.207909357000062, 48.202191103000075 ], [ 16.204754799000057, 48.204702216000044 ], [ 16.203799190000041, 48.205462906000037 ], [ 16.20490542400006, 48.206831040000054 ], [ 16.207275530000061, 48.209762266000041 ], [ 16.202558502000045, 48.212656630000026 ], [ 16.198130555000034, 48.215373615000033 ], [ 16.196770801000071, 48.220020471000055 ], [ 16.196287562000066, 48.221671905000051 ], [ 16.195412547000046, 48.221748613000045 ], [ 16.184447103000025, 48.222709893000058 ], [ 16.183983357000045, 48.223313030000043 ], [ 16.194399179000072, 48.229530489000069 ], [ 16.197032383000078, 48.231102313000065 ], [ 16.196892482000067, 48.235073675000081 ], [ 16.196524440000076, 48.245521240000073 ], [ 16.208525118000068, 48.262583555000049 ], [ 16.238221970000041, 48.248022570000046 ], [ 16.238364314000023, 48.247308040000064 ], [ 16.239743901000054, 48.24038285000006 ], [ 16.255334781000045, 48.239965319000078 ], [ 16.267612846000077, 48.250522614000033 ], [ 16.267499705000034, 48.25098997200007 ], [ 16.266476801000067, 48.255215345000067 ], [ 16.278832649000037, 48.259225034000053 ], [ 16.289110447000041, 48.262560359000076 ], [ 16.288148406000062, 48.265994311000043 ], [ 16.287726398000075, 48.267500643000062 ], [ 16.290631562000044, 48.270986358000073 ], [ 16.340422704000048, 48.281608446000064 ], [ 16.346549400000072, 48.284264248000056 ], [ 16.347786739000071, 48.288690600000052 ], [ 16.358053383000026, 48.284448389000033 ], [ 16.358646873000055, 48.284203157000036 ], [ 16.367533558000048, 48.283974714000067 ], [ 16.376946360000034, 48.289173917000028 ], [ 16.376597783000022, 48.295402583000055 ], [ 16.37655, 48.296256410000069 ], [ 16.377490538000075, 48.297195007000028 ], [ 16.383771301000024, 48.303462804000048 ], [ 16.382466874000045, 48.307186216000048 ], [ 16.380652987000076, 48.312363853000079 ], [ 16.382575426000074, 48.316948341000057 ], [ 16.394427773000075, 48.321741153000062 ], [ 16.397689247000073, 48.319264589000056 ], [ 16.399687916000062, 48.317746921000037 ], [ 16.40986472700007, 48.320144110000058 ], [ 16.417111652000074, 48.321851153000068 ], [ 16.427065695000067, 48.320379851000041 ], [ 16.431655773000045, 48.318325784000081 ] ] ] } }
]
}
